COSMOS 2228             
1 22286U 92094A   25326.09822272  .00002052  00000+0  17756-3 0  9991
2 22286  82.5174 340.2851 0016634 307.5526  52.4184 14.96591474759960
SL-16 R/B               
1 22566U 93016B   25325.85511198  .00000239  00000+0  14701-3 0  9994
2 22566  71.0079  81.6643 0008533 136.5158 223.6639 14.15287146686913
COSMOS 2242             
1 22626U 93024A   25325.63390508  .00001853  00000+0  16271-3 0  9993
2 22626  82.5203  10.0162 0015136 312.2631  47.7306 14.95983508764235
SL-16 R/B               
1 22803U 93059B   25325.98096757 -.00000164  00000+0 -57507-4 0  9999
2 22803  70.9901 238.2585 0016731   6.2531 353.8798 14.17208629664279
ARIANE 40 R/B           
1 22830U 93061H   25326.08708002  .00000278  00000+0  11779-3 0  9991
2 22830  98.5101  31.9906 0009809 239.3454 120.6764 14.32782316678694
COSMOS 2278             
1 23087U 94023A   25325.67199751  .00000325  00000+0  19433-3 0  9992
2 23087  71.0556  41.0861 0009555 207.2376 152.8247 14.14346436629537
SL-16 R/B               
1 23088U 94023B   25325.97988013 -.00000029  00000+0  95689-5 0  9994
2 23088  70.9989 297.0822 0001153 129.0628 231.0597 14.14991260630859
SL-16 R/B               
1 23343U 94074B   25326.11228278  .00000526  00000+0  77348-4 0  9993
2 23343  97.7227 356.2346 0005968 199.8918 224.7330 14.79255359671345
SL-16 R/B               
1 23405U 94077B   25326.07414251 -.00000118  00000+0 -35879-4 0  9990
2 23405  70.9826 218.8873 0004479 300.8420  59.2262 14.15548026601005
ARIANE 40+ R/B          
1 23561U 95021B   25326.09495955  .00000360  00000+0  12887-3 0  9995
2 23561  98.4676  33.9310 0007885 103.5853 316.7316 14.39672414603761
SL-16 R/B               
1 23705U 95058B   25325.65178361 -.00000187  00000+0 -71316-4 0  9997
2 23705  71.0226  47.0774 0014966 282.1476  77.7970 14.15474999552565
SL-16 R/B               
1 24298U 96051B   25325.66688987 -.00000022  00000+0  14613-4 0  9994
2 24298  70.7609  43.8874 0018636 287.6352  72.2733 14.12393892506396
