CCSDS_OMM_VERS = 2.0
CREATION_DATE  = 
ORIGINATOR     = 

OBJECT_NAME    = COSMOS 2228
OBJECT_ID      = 1992-094A
CENTER_NAME    = EARTH
REF_FRAME      = TEME
TIME_SYSTEM    = UTC
MEAN_ELEMENT_THEORY = SGP/SGP4

EPOCH          = 2025-11-22T02:21:26.443008
MEAN_MOTION    = 14.96591474
ECCENTRICITY   = .0016634
INCLINATION    = 82.5174
RA_OF_ASC_NODE = 340.2851
ARG_OF_PERICENTER = 307.5526
MEAN_ANOMALY   = 52.4184

EPHEMERIS_TYPE = 0
CLASSIFICATION_TYPE = U
NORAD_CAT_ID   = 22286
ELEMENT_SET_NO = 999
REV_AT_EPOCH   = 75996
BSTAR          = .17756E-3
MEAN_MOTION_DOT = .2052E-4
MEAN_MOTION_DDOT = 0

CCSDS_OMM_VERS = 2.0
CREATION_DATE  = 
ORIGINATOR     = 

OBJECT_NAME    = SL-16 R/B
OBJECT_ID      = 1993-016B
CENTER_NAME    = EARTH
REF_FRAME      = TEME
TIME_SYSTEM    = UTC
MEAN_ELEMENT_THEORY = SGP/SGP4

EPOCH          = 2025-11-21T20:31:21.675072
MEAN_MOTION    = 14.15287146
ECCENTRICITY   = .0008533
INCLINATION    = 71.0079
RA_OF_ASC_NODE = 81.6643
ARG_OF_PERICENTER = 136.5158
MEAN_ANOMALY   = 223.6639

EPHEMERIS_TYPE = 0
CLASSIFICATION_TYPE = U
NORAD_CAT_ID   = 22566
ELEMENT_SET_NO = 999
REV_AT_EPOCH   = 68691
BSTAR          = .14701E-3
MEAN_MOTION_DOT = .239E-5
MEAN_MOTION_DDOT = 0

CCSDS_OMM_VERS = 2.0
CREATION_DATE  = 
ORIGINATOR     = 

OBJECT_NAME    = COSMOS 2242
OBJECT_ID      = 1993-024A
CENTER_NAME    = EARTH
REF_FRAME      = TEME
TIME_SYSTEM    = UTC
MEAN_ELEMENT_THEORY = SGP/SGP4

EPOCH          = 2025-11-21T15:12:49.398912
MEAN_MOTION    = 14.95983508
ECCENTRICITY   = .0015136
INCLINATION    = 82.5203
RA_OF_ASC_NODE = 10.0162
ARG_OF_PERICENTER = 312.2631
MEAN_ANOMALY   = 47.7306

EPHEMERIS_TYPE = 0
CLASSIFICATION_TYPE = U
NORAD_CAT_ID   = 22626
ELEMENT_SET_NO = 999
REV_AT_EPOCH   = 76423
BSTAR          = .16271E-3
MEAN_MOTION_DOT = .1853E-4
MEAN_MOTION_DDOT = 0

CCSDS_OMM_VERS = 2.0
CREATION_DATE  = 
ORIGINATOR     = 

OBJECT_NAME    = SL-16 R/B
OBJECT_ID      = 1993-059B
CENTER_NAME    = EARTH
REF_FRAME      = TEME
TIME_SYSTEM    = UTC
MEAN_ELEMENT_THEORY = SGP/SGP4

EPOCH          = 2025-11-21T23:32:35.598048
MEAN_MOTION    = 14.17208629
ECCENTRICITY   = .0016731
INCLINATION    = 70.9901
RA_OF_ASC_NODE = 238.2585
ARG_OF_PERICENTER = 6.2531
MEAN_ANOMALY   = 353.8798

EPHEMERIS_TYPE = 0
CLASSIFICATION_TYPE = U
NORAD_CAT_ID   = 22803
ELEMENT_SET_NO = 999
REV_AT_EPOCH   = 66427
BSTAR          = -.57507E-4
MEAN_MOTION_DOT = -.164E-5
MEAN_MOTION_DDOT = 0

CCSDS_OMM_VERS = 2.0
CREATION_DATE  = 
ORIGINATOR     = 

OBJECT_NAME    = ARIANE 40 R/B
OBJECT_ID      = 1993-061H
CENTER_NAME    = EARTH
REF_FRAME      = TEME
TIME_SYSTEM    = UTC
MEAN_ELEMENT_THEORY = SGP/SGP4

EPOCH          = 2025-11-22T02:05:23.713728
MEAN_MOTION    = 14.32782316
ECCENTRICITY   = .0009809
INCLINATION    = 98.5101
RA_OF_ASC_NODE = 31.9906
ARG_OF_PERICENTER = 239.3454
MEAN_ANOMALY   = 120.6764

EPHEMERIS_TYPE = 0
CLASSIFICATION_TYPE = U
NORAD_CAT_ID   = 22830
ELEMENT_SET_NO = 999
REV_AT_EPOCH   = 67869
BSTAR          = .11779E-3
MEAN_MOTION_DOT = .278E-5
MEAN_MOTION_DDOT = 0

CCSDS_OMM_VERS = 2.0
CREATION_DATE  = 
ORIGINATOR     = 

OBJECT_NAME    = COSMOS 2278
OBJECT_ID      = 1994-023A
CENTER_NAME    = EARTH
REF_FRAME      = TEME
TIME_SYSTEM    = UTC
MEAN_ELEMENT_THEORY = SGP/SGP4

EPOCH          = 2025-11-21T16:07:40.584864
MEAN_MOTION    = 14.14346436
ECCENTRICITY   = .0009555
INCLINATION    = 71.0556
RA_OF_ASC_NODE = 41.0861
ARG_OF_PERICENTER = 207.2376
MEAN_ANOMALY   = 152.8247

EPHEMERIS_TYPE = 0
CLASSIFICATION_TYPE = U
NORAD_CAT_ID   = 23087
ELEMENT_SET_NO = 999
REV_AT_EPOCH   = 62953
BSTAR          = .19433E-3
MEAN_MOTION_DOT = .325E-5
MEAN_MOTION_DDOT = 0

CCSDS_OMM_VERS = 2.0
CREATION_DATE  = 
ORIGINATOR     = 

OBJECT_NAME    = SL-16 R/B
OBJECT_ID      = 1994-023B
CENTER_NAME    = EARTH
REF_FRAME      = TEME
TIME_SYSTEM    = UTC
MEAN_ELEMENT_THEORY = SGP/SGP4

EPOCH          = 2025-11-21T23:31:01.643232
MEAN_MOTION    = 14.14991260
ECCENTRICITY   = .0001153
INCLINATION    = 70.9989
RA_OF_ASC_NODE = 297.0822
ARG_OF_PERICENTER = 129.0628
MEAN_ANOMALY   = 231.0597

EPHEMERIS_TYPE = 0
CLASSIFICATION_TYPE = U
NORAD_CAT_ID   = 23088
ELEMENT_SET_NO = 999
REV_AT_EPOCH   = 63085
BSTAR          = .95689E-5
MEAN_MOTION_DOT = -.29E-6
MEAN_MOTION_DDOT = 0

CCSDS_OMM_VERS = 2.0
CREATION_DATE  = 
ORIGINATOR     = 

OBJECT_NAME    = SL-16 R/B
OBJECT_ID      = 1994-074B
CENTER_NAME    = EARTH
REF_FRAME      = TEME
TIME_SYSTEM    = UTC
MEAN_ELEMENT_THEORY = SGP/SGP4

EPOCH          = 2025-11-22T02:41:41.232192
MEAN_MOTION    = 14.79255359
ECCENTRICITY   = .0005968
INCLINATION    = 97.7227
RA_OF_ASC_NODE = 356.2346
ARG_OF_PERICENTER = 199.8918
MEAN_ANOMALY   = 224.7330

EPHEMERIS_TYPE = 0
CLASSIFICATION_TYPE = U
NORAD_CAT_ID   = 23343
ELEMENT_SET_NO = 999
REV_AT_EPOCH   = 67134
BSTAR          = .77348E-4
MEAN_MOTION_DOT = .526E-5
MEAN_MOTION_DDOT = 0

CCSDS_OMM_VERS = 2.0
CREATION_DATE  = 
ORIGINATOR     = 

OBJECT_NAME    = SL-16 R/B
OBJECT_ID      = 1994-077B
CENTER_NAME    = EARTH
REF_FRAME      = TEME
TIME_SYSTEM    = UTC
MEAN_ELEMENT_THEORY = SGP/SGP4

EPOCH          = 2025-11-22T01:46:45.912864
MEAN_MOTION    = 14.15548026
ECCENTRICITY   = .0004479
INCLINATION    = 70.9826
RA_OF_ASC_NODE = 218.8873
ARG_OF_PERICENTER = 300.8420
MEAN_ANOMALY   = 59.2262

EPHEMERIS_TYPE = 0
CLASSIFICATION_TYPE = U
NORAD_CAT_ID   = 23405
ELEMENT_SET_NO = 999
REV_AT_EPOCH   = 60100
BSTAR          = -.35879E-4
MEAN_MOTION_DOT = -.118E-5
MEAN_MOTION_DDOT = 0

CCSDS_OMM_VERS = 2.0
CREATION_DATE  = 
ORIGINATOR     = 

OBJECT_NAME    = ARIANE 40+ R/B
OBJECT_ID      = 1995-021B
CENTER_NAME    = EARTH
REF_FRAME      = TEME
TIME_SYSTEM    = UTC
MEAN_ELEMENT_THEORY = SGP/SGP4

EPOCH          = 2025-11-22T02:16:44.505120
MEAN_MOTION    = 14.39672414
ECCENTRICITY   = .0007885
INCLINATION    = 98.4676
RA_OF_ASC_NODE = 33.9310
ARG_OF_PERICENTER = 103.5853
MEAN_ANOMALY   = 316.7316

EPHEMERIS_TYPE = 0
CLASSIFICATION_TYPE = U
NORAD_CAT_ID   = 23561
ELEMENT_SET_NO = 999
REV_AT_EPOCH   = 60376
BSTAR          = .12887E-3
MEAN_MOTION_DOT = .36E-5
MEAN_MOTION_DDOT = 0

CCSDS_OMM_VERS = 2.0
CREATION_DATE  = 
ORIGINATOR     = 

OBJECT_NAME    = SL-16 R/B
OBJECT_ID      = 1995-058B
CENTER_NAME    = EARTH
REF_FRAME      = TEME
TIME_SYSTEM    = UTC
MEAN_ELEMENT_THEORY = SGP/SGP4

EPOCH          = 2025-11-21T15:38:34.103904
MEAN_MOTION    = 14.15474999
ECCENTRICITY   = .0014966
INCLINATION    = 71.0226
RA_OF_ASC_NODE = 47.0774
ARG_OF_PERICENTER = 282.1476
MEAN_ANOMALY   = 77.7970

EPHEMERIS_TYPE = 0
CLASSIFICATION_TYPE = U
NORAD_CAT_ID   = 23705
ELEMENT_SET_NO = 999
REV_AT_EPOCH   = 55256
BSTAR          = -.71316E-4
MEAN_MOTION_DOT = -.187E-5
MEAN_MOTION_DDOT = 0

CCSDS_OMM_VERS = 2.0
CREATION_DATE  = 
ORIGINATOR     = 

OBJECT_NAME    = SL-16 R/B
OBJECT_ID      = 1996-051B
CENTER_NAME    = EARTH
REF_FRAME      = TEME
TIME_SYSTEM    = UTC
MEAN_ELEMENT_THEORY = SGP/SGP4

EPOCH          = 2025-11-21T16:00:19.284768
MEAN_MOTION    = 14.12393892
ECCENTRICITY   = .0018636
INCLINATION    = 70.7609
RA_OF_ASC_NODE = 43.8874
ARG_OF_PERICENTER = 287.6352
MEAN_ANOMALY   = 72.2733

EPHEMERIS_TYPE = 0
CLASSIFICATION_TYPE = U
NORAD_CAT_ID   = 24298
ELEMENT_SET_NO = 999
REV_AT_EPOCH   = 50639
BSTAR          = .14613E-4
MEAN_MOTION_DOT = -.22E-6
MEAN_MOTION_DDOT = 0

